{
  "norad_id": 56387,
  "name": "STARLINK-6178",
  "history": [
    {
      "epoch": "2026-05-05T15:36:48.009024Z",
      "apogee_km": 483.86185146537355,
      "perigee_km": 482.2426108068257,
      "latitude_deg": -2.9168605145533716e-05,
      "longitude_deg": 138.2648407159621,
      "height_km": 482.84003007861736,
      "semi_major_axis_km": 6861.189231136099,
      "eccentricity": 0.000118,
      "inclination_deg": 43.0021,
      "raan_deg": 235.9874,
      "arg_perigee_deg": 269.2182,
      "mean_anomaly_deg": 90.8534,
      "mean_motion_rev_day": 15.27578953
    },
    {
      "epoch": "2026-05-06T15:09:09.154080Z",
      "apogee_km": 483.9098436918721,
      "perigee_km": 482.22061570292044,
      "latitude_deg": -5.785459495640924e-05,
      "longitude_deg": 138.67168109170123,
      "height_km": 482.89409855739115,
      "semi_major_axis_km": 6861.202229697396,
      "eccentricity": 0.0001231,
      "inclination_deg": 43.0021,
      "raan_deg": 230.4491,
      "arg_perigee_deg": 266.465,
      "mean_anomaly_deg": 93.606,
      "mean_motion_rev_day": 15.27574612
    },
    {
      "epoch": "2026-05-07T13:07:20.584128Z",
      "apogee_km": 483.95065420904575,
      "perigee_km": 482.18046394880366,
      "latitude_deg": -1.0776637509811637e-05,
      "longitude_deg": 163.05223346074393,
      "height_km": 482.90203582239633,
      "semi_major_axis_km": 6861.202559078924,
      "eccentricity": 0.000129,
      "inclination_deg": 43.0025,
      "raan_deg": 225.2795,
      "arg_perigee_deg": 266.1391,
      "mean_anomaly_deg": 93.9313,
      "mean_motion_rev_day": 15.27574502
    },
    {
      "epoch": "2026-05-08T14:13:50.360736Z",
      "apogee_km": 483.97371013088014,
      "perigee_km": 482.1294226442342,
      "latitude_deg": -1.2810434060228064e-05,
      "longitude_deg": 139.48859879352267,
      "height_km": 482.90558205601997,
      "semi_major_axis_km": 6861.188566387556,
      "eccentricity": 0.0001344,
      "inclination_deg": 43.0031,
      "raan_deg": 219.3711,
      "arg_perigee_deg": 265.2084,
      "mean_anomaly_deg": 94.8614,
      "mean_motion_rev_day": 15.27579175
    },
    {
      "epoch": "2026-05-09T13:46:11.155008Z",
      "apogee_km": 483.98918870883244,
      "perigee_km": 482.11196778742396,
      "latitude_deg": -1.842780783714562e-05,
      "longitude_deg": 139.89623084981372,
      "height_km": 482.95099479306106,
      "semi_major_axis_km": 6861.187578248128,
      "eccentricity": 0.0001368,
      "inclination_deg": 43.0031,
      "raan_deg": 213.8321,
      "arg_perigee_deg": 262.4441,
      "mean_anomaly_deg": 97.6255,
      "mean_motion_rev_day": 15.27579505
    },
    {
      "epoch": "2026-05-10T13:18:32.624064Z",
      "apogee_km": 484.0359046446665,
      "perigee_km": 482.1051608449525,
      "latitude_deg": 3.319484848014608e-05,
      "longitude_deg": 140.30130552138613,
      "height_km": 482.95931546817746,
      "semi_major_axis_km": 6861.207532744809,
      "eccentricity": 0.0001407,
      "inclination_deg": 43.003,
      "raan_deg": 208.2933,
      "arg_perigee_deg": 263.3516,
      "mean_anomaly_deg": 96.7176,
      "mean_motion_rev_day": 15.27572841
    },
    {
      "epoch": "2026-05-11T12:50:53.203200Z",
      "apogee_km": 484.0827810747296,
      "perigee_km": 482.03814423085987,
      "latitude_deg": 9.301368352361854e-07,
      "longitude_deg": 140.71020978132768,
      "height_km": 482.8685782512169,
      "semi_major_axis_km": 6861.1974626527945,
      "eccentricity": 0.000149,
      "inclination_deg": 43.0031,
      "raan_deg": 202.7547,
      "arg_perigee_deg": 268.2624,
      "mean_anomaly_deg": 91.8057,
      "mean_motion_rev_day": 15.27576204
    },
    {
      "epoch": "2026-05-12T13:57:23.257152Z",
      "apogee_km": 484.13927739391784,
      "perigee_km": 481.9780007676063,
      "latitude_deg": -3.149893334984678e-05,
      "longitude_deg": 117.14638742219617,
      "height_km": 482.7738452662961,
      "semi_major_axis_km": 6861.195639080762,
      "eccentricity": 0.0001575,
      "inclination_deg": 43.0038,
      "raan_deg": 196.8473,
      "arg_perigee_deg": 273.2929,
      "mean_anomaly_deg": 86.7742,
      "mean_motion_rev_day": 15.27576813
    },
    {
      "epoch": "2026-05-13T11:55:34.561920Z",
      "apogee_km": 484.1891553353744,
      "perigee_km": 481.9098691760046,
      "latitude_deg": -2.4974020980497625e-05,
      "longitude_deg": 141.52752381251176,
      "height_km": 482.7062216740605,
      "semi_major_axis_km": 6861.186512255689,
      "eccentricity": 0.0001661,
      "inclination_deg": 43.0037,
      "raan_deg": 191.6778,
      "arg_perigee_deg": 276.076,
      "mean_anomaly_deg": 83.9902,
      "mean_motion_rev_day": 15.27579861
    },
    {
      "epoch": "2026-05-13T11:55:34.562784Z",
      "apogee_km": 484.1889494997795,
      "perigee_km": 481.9100750115995,
      "latitude_deg": -2.7322899200597222e-05,
      "longitude_deg": 141.52751769803768,
      "height_km": 482.7062434584943,
      "semi_major_axis_km": 6861.186512255689,
      "eccentricity": 0.00016607,
      "inclination_deg": 43.0037,
      "raan_deg": 191.6778,
      "arg_perigee_deg": 276.076,
      "mean_anomaly_deg": 83.9902,
      "mean_motion_rev_day": 15.27579861
    }
  ]
}